#dP2024 11 24  6  0  0.00000000      96 __u+U IGS20 EXT  IAC
## 2342  21600.00000000   900.00000000 60638 0.2500000000000
+   52   G02G03G04G05G06G07G08G09G10G11G12G13G14G15G16G17G18
+        G19G20G21G22G23G24G25G26G27G28G29G30G31G32R01R02R03
+        R04R05R07R08R09R11R12R14R15R16R17R18R19R20R21R22R24
+        R26  0  0  0  0  0  0  0  0  0  0  0  0  0  0  0  0
+          0  0  0  0  0  0  0  0  0  0  0  0  0  0  0  0  0
++         8  9  8  8  9  8  9  8  8  9  9  8  8  8  8  8  8
++         8  9  8  8  8  9  9  9  8  9  8  8  8  8  9  8  8
++         9  8  9  9  8  9 10  9  9  9  9  8  9 10  8  9  8
++        10  0  0  0  0  0  0  0  0  0  0  0  0  0  0  0  0
++         0  0  0  0  0  0  0  0  0  0  0  0  0  0  0  0  0
%c M  cc GPS ccc cccc cccc cccc cccc ccccc ccccc ccccc ccccc
%c cc cc ccc ccc cccc cccc cccc cccc ccccc ccccc ccccc ccccc
%f  0.0000000  0.000000000  0.00000000000  0.000000000000000
%f  0.0000000  0.000000000  0.00000000000  0.000000000000000
%i    0    0    0    0      0      0      0      0         0
%i    0    0    0    0      0      0      0      0         0
/* IAC                                ULTRA-RAPID PREDICTION
/* S/V CLOCKS ARE ALIGNED TO GNSS TIME                      
/* G:C1WC2W R:C1PC2P E:C1XC5X C:C2IC6I J:C1CC2S             
/* PCV:IGS20_2317 OL/AL:FES2004  NONE     YN ORB:CoN CLK:CoN
*  2024 11 24 23  0  0.00000000
PG02  14363.404113 -21941.200615   3141.184739   -307.023128
PG03  12109.807032 -12556.036615 -20158.200623    608.592699
PG04   4011.086645 -19755.642472 -17200.636541    485.098155
PG05 -24459.117780   5605.369406   8627.062751   -194.018021
PG06 -12531.230164  -7448.544013 -22132.540298   -140.439776
PG07   3079.772886 -22592.531478  13763.467623    -18.355806
PG08  12177.980967  -9597.825197  21411.366058    422.306609
PG09  -4617.737623 -24017.652904 -10365.088108    458.624809
PG10  20269.551706  10547.618975  14051.542892   -208.617889
PG11 -19132.791361   5891.049397 -17383.290486   -751.293757
PG12 -16723.525580  10531.948117 -18007.950646   -554.240134
PG13 -15379.127553    130.251438  21448.905171    687.399602
PG14 -16842.509708 -13004.769881  16083.998692    546.793705
PG15 -10489.859017  11693.236617  20883.470562    231.758542
PG16  26386.035581    813.331245   4286.507718   -119.856239
PG17 -13225.017557 -22300.266738  -4841.544005    545.712101
PG18  -2162.573922  21524.306276  15286.014203   -660.567013
PG19 -16490.859614 -15539.603307 -14340.163527    566.602802
PG20 -26249.030970    842.646102  -3327.479528    368.452090
PG21  16714.105396 -17933.569552   9072.781967     96.641686
PG22 -22156.713106 -10507.957295  10194.104153    -81.866651
PG23   6797.833056  14446.258806  21305.932938    370.161116
PG24 -14536.778626  21522.042622   3942.566926   -478.214063
PG25  -1812.089118  15544.455278 -21804.209293    498.742669
PG26  25286.306750   4866.006293  -7462.916495     14.638174
PG27  17098.198688   2631.660160  19970.390042    -34.601206
PG28  11898.525998   9621.219716 -21725.685421   -489.103352
PG29   2029.290543  24194.027481 -10666.343493   -561.202021
PG30  -6939.773758 -16230.090266  19922.127115   -275.049874
PG31  17974.744569  -1236.414712 -19874.031095   -221.176490
PG32  16109.158630  19774.467826  -7562.205548   -568.981888
PR01  -3210.936647 -15404.822411 -20080.026906    105.534061
PR02 -15629.649498 -18992.182049  -6570.761702    -39.392706
PR03 -19949.031598 -11541.209395  10900.914301    112.029520
PR04 -13042.475411   1533.500758  21888.543814    265.505688
PR05    604.201500  14097.872292  21264.631333    141.229401
PR07  19924.948785  11408.613743 -11139.447792     95.650124
PR08  12969.318750  -1862.001289 -21837.787458     -6.209814
PR09   8028.670747   8991.518954 -22454.615055    222.451616
PR11  23920.050771  -8631.823786   1885.651489      6.200843
PR12  11261.558633 -13029.546762  18841.821689     47.630095
PR14 -21770.779208    288.302483  13312.825370     27.290395
PR15 -23498.780963   9236.374630  -3637.024989     73.785219
PR16 -11457.520114  12945.289098 -18766.148710     31.065672
PR17 -10092.175706  -3551.325682 -23141.014923    142.826956
PR18 -11806.612425  13657.228018 -18018.563400    173.530039
PR19  -9113.534746  23155.264901  -5580.474465   -299.620002
PR20   1202.233010  20555.090016  15097.744321   -122.354720
PR21   9702.427494   4662.682199  23131.374254   -154.091786
PR22  12324.934818 -14353.687811  17137.197334    -20.559746
PR24  -2741.981586 -20231.945747 -15280.431869    -81.457358
PR26  14090.839849   -511.016911 -21235.166169   -133.297242
*  2024 11 24 23 15  0.00000000
PG02  14381.365972 -21402.923815   5966.608018   -307.015327
PG03  14297.758649 -12400.016918 -18752.022511    608.601577
PG04   5062.871833 -17970.106809 -18817.714686    485.103920
PG05 -25314.042350   5421.406318   5911.655444   -194.018976
PG06 -11161.981636  -9582.827807 -22034.381872   -140.466465
PG07   4014.883303 -23643.074919  11434.602726    -18.354122
PG08  13472.540261  -7473.793211  21521.927574    422.315466
PG09  -3768.855388 -22990.367855 -12783.838516    458.640090
PG10  18590.775317  10605.744129  16171.919614   -208.631110
PG11 -18075.042165   4085.893432 -18963.625944   -751.294802
PG12 -18611.552928  10200.374670 -16225.998467   -554.242266
PG13 -16189.830556  -2189.700151  20758.024993    687.401051
PG14 -14908.693372 -13086.010737  17816.530310    546.800896
PG15 -12050.182833   9714.351673  21064.076510    231.762694
PG16  26723.309490   1073.439071   1481.492768   -119.847481
PG17 -13179.837043 -22807.077810  -1999.131651    545.698609
PG18  -3186.547162  22797.334240  13079.334459   -660.567112
PG19 -16907.450237 -16963.899353 -12074.084226    566.606748
PG20 -25745.717666    487.916852  -6114.257047    368.451817
PG21  16461.952074 -16756.321666  11637.611735     96.640848
PG22 -20875.543368 -10591.857021  12641.895345    -81.869104
PG23   4343.013419  14479.669969  21897.550916    370.168224
PG24 -14569.595428  20763.222804   6676.613114   -478.211811
PG25  -4219.607709  15490.584463 -21478.586649    498.742371
PG26  24333.543943   5204.128775  -9992.935802     14.626190
PG27  18110.283968   4655.925192  18726.259432    -34.601076
PG28  10649.901285  11740.868120 -21327.318048   -489.113624
PG29   1287.696805  23041.146810 -13082.186084   -561.199173
PG30  -5668.660782 -18029.003963  18708.323086   -275.042740
PG31  16809.284186    719.971791 -20873.272489   -221.175877
PG32  16267.197707  20523.060854  -4831.756083   -568.976885
PR01  -1267.334579 -13733.095463 -21461.749358    105.535197
PR02 -14981.937343 -18206.386080  -9595.810168    -39.392648
PR03 -20922.493676 -12188.704613   7957.520941    112.030170
PR04 -15049.755015   -150.442450  20613.274526    265.507238
PR05  -1361.476260  12260.366882  22338.997621    141.230045
PR07  20930.767976  12079.042794  -8219.556571     95.650784
PR08  14997.173411   -184.401753 -20588.994643     -6.209775
PR09   5417.609090   9991.218912 -22817.600220    222.453516
PR11  23902.780388  -8779.752132  -1326.821685      6.200132
PR12  13304.484986 -13839.193080  16823.771517     47.630472
PR14 -20054.256481   -236.047330  15780.961495     27.290460
PR15 -23695.306178   9442.323400   -446.684949     73.784835
PR16 -13487.284474  13772.799237 -16719.759786     31.065930
PR17  -9558.988629  -6339.760984 -22772.521359    142.829958
PR18 -11203.727610  11388.604413 -19877.976221    173.531694
PR19  -8703.382925  22348.019788  -8668.350024   -299.620985
PR20    964.204803  22248.462724  12488.914862   -122.355219
PR21   9153.528758   7433.506807  22622.378420   -154.094540
PR22  11725.026948 -12203.383254  19114.500958    -20.570590
PR24  -2522.935094 -21954.410018 -12734.153367    -81.458663
PR26  16063.366689   1083.355360 -19762.158765   -133.297031
EOF
